
[
  {
    "CCSDS_OMM_VERS": "2.0",
    "COMMENT": "GENERATED VIA SPACE-TRACK.ORG API",
    "CREATION_DATE": "2023-08-08T14:56:13",
    "ORIGINATOR": "18 SPCS",
    "OBJECT_NAME": "OBJECT A",
    "OBJECT_ID": "2022-087A",
    "CENTER_NAME": "EARTH",
    "REF_FRAME": "TEME",
    "TIME_SYSTEM": "UTC",
    "MEAN_ELEMENT_THEORY": "SGP4",
    "EPOCH": "2023-08-08T11:21:07.022016",
    "MEAN_MOTION": "15.29515647",
    "ECCENTRICITY": "0.00126420",
    "INCLINATION": "97.3647",
    "RA_OF_ASC_NODE": "294.4981",
    "ARG_OF_PERICENTER": "39.5682",
    "MEAN_ANOMALY": "320.6478",
    "EPHEMERIS_TYPE": "0",
    "CLASSIFICATION_TYPE": "U",
    "NORAD_CAT_ID": "53299",
    "ELEMENT_SET_NO": "999",
    "REV_AT_EPOCH": "5748",
    "BSTAR": "0.00056318000000",
    "MEAN_MOTION_DOT": "0.00016092",
    "MEAN_MOTION_DDOT": "0.0000000000000",
    "SEMIMAJOR_AXIS": "6855.396",
    "PERIOD": "94.147",
    "APOAPSIS": "485.928",
    "PERIAPSIS": "468.595",
    "OBJECT_TYPE": "UNKNOWN",
    "RCS_SIZE": "LARGE",
    "COUNTRY_CODE": "PRC",
    "LAUNCH_DATE": "2022-07-27",
    "SITE": "JSC",
    "DECAY_DATE": null,
    "FILE": "3975034",
    "GP_ID": "235534977",
    "TLE_LINE0": "0 OBJECT A",
    "TLE_LINE1": "1 53299U 22087A 23220.47299794 .00016092 00000-0 56318-3 0 9991",
    "TLE_LINE2": "2 53299 97.3647 294.4981 0012642 39.5682 320.6478 15.29515647 57480"
  },
  {
    "CCSDS_OMM_VERS": "2.0",
    "COMMENT": "GENERATED VIA SPACE-TRACK.ORG API",
    "CREATION_DATE": "2023-08-08T22:56:14",
    "ORIGINATOR": "18 SPCS",
    "OBJECT_NAME": "OBJECT A",
    "OBJECT_ID": "2022-087A",
    "CENTER_NAME": "EARTH",
    "REF_FRAME": "TEME",
    "TIME_SYSTEM": "UTC",
    "MEAN_ELEMENT_THEORY": "SGP4",
    "EPOCH": "2023-08-08T17:37:56.952480",
    "MEAN_MOTION": "15.29521780",
    "ECCENTRICITY": "0.00126170",
    "INCLINATION": "97.3647",
    "RA_OF_ASC_NODE": "294.7573",
    "ARG_OF_PERICENTER": "38.6782",
    "MEAN_ANOMALY": "321.5359",
    "EPHEMERIS_TYPE": "0",
    "CLASSIFICATION_TYPE": "U",
    "NORAD_CAT_ID": "53299",
    "ELEMENT_SET_NO": "999",
    "REV_AT_EPOCH": "5752",
    "BSTAR": "0.00051560000000",
    "MEAN_MOTION_DOT": "0.00014726",
    "MEAN_MOTION_DDOT": "0.0000000000000",
    "SEMIMAJOR_AXIS": "6855.378",
    "PERIOD": "94.147",
    "APOAPSIS": "485.892",
    "PERIAPSIS": "468.593",
    "OBJECT_TYPE": "UNKNOWN",
    "RCS_SIZE": "LARGE",
    "COUNTRY_CODE": "PRC",
    "LAUNCH_DATE": "2022-07-27",
    "SITE": "JSC",
    "DECAY_DATE": null,
    "FILE": "3975327",
    "GP_ID": "235543141",
    "TLE_LINE0": "0 OBJECT A",
    "TLE_LINE1": "1 53299U 22087A 23220.73468695 .00014726 00000-0 51560-3 0 9994",
    "TLE_LINE2": "2 53299 97.3647 294.7573 0012617 38.6782 321.5359 15.29521780 57521"
  }
]